CCSDS_OMM_VERS = 2.0
CREATION_DATE  = 
ORIGINATOR     = 

OBJECT_NAME    = DELTA 2 R/B(1)
OBJECT_ID      = 1990-008B
CENTER_NAME    = EARTH
REF_FRAME      = TEME
TIME_SYSTEM    = UTC
MEAN_ELEMENT_THEORY = SGP/SGP4

EPOCH          = 2025-12-30T10:41:15.063936
MEAN_MOTION    = 15.46868258
ECCENTRICITY   = .01076754
INCLINATION    = 35.6063
RA_OF_ASC_NODE = 266.0704
ARG_OF_PERICENTER = 338.8474
MEAN_ANOMALY   = 20.7828

EPHEMERIS_TYPE = 0
CLASSIFICATION_TYPE = U
NORAD_CAT_ID   = 20453
ELEMENT_SET_NO = 999
REV_AT_EPOCH   = 91537
BSTAR          = .94128635E-3
MEAN_MOTION_DOT = .61791E-3
MEAN_MOTION_DDOT = 0

CCSDS_OMM_VERS = 2.0
CREATION_DATE  = 
ORIGINATOR     = 

OBJECT_NAME    = COSMOS 2058
OBJECT_ID      = 1990-010A
CENTER_NAME    = EARTH
REF_FRAME      = TEME
TIME_SYSTEM    = UTC
MEAN_ELEMENT_THEORY = SGP/SGP4

EPOCH          = 2025-12-30T09:04:59.877120
MEAN_MOTION    = 15.10659078
ECCENTRICITY   = .0009872
INCLINATION    = 82.4711
RA_OF_ASC_NODE = 115.6815
ARG_OF_PERICENTER = 208.4730
MEAN_ANOMALY   = 151.5962

EPHEMERIS_TYPE = 0
CLASSIFICATION_TYPE = U
NORAD_CAT_ID   = 20465
ELEMENT_SET_NO = 999
REV_AT_EPOCH   = 93177
BSTAR          = .44291954E-3
MEAN_MOTION_DOT = .7362E-4
MEAN_MOTION_DDOT = 0

CCSDS_OMM_VERS = 2.0
CREATION_DATE  = 
ORIGINATOR     = 

OBJECT_NAME    = SL-14 R/B
OBJECT_ID      = 1990-010B
CENTER_NAME    = EARTH
REF_FRAME      = TEME
TIME_SYSTEM    = UTC
MEAN_ELEMENT_THEORY = SGP/SGP4

EPOCH          = 2025-12-30T08:24:10.288512
MEAN_MOTION    = 14.83490476
ECCENTRICITY   = .00201693
INCLINATION    = 82.5028
RA_OF_ASC_NODE = 332.5069
ARG_OF_PERICENTER = 163.9553
MEAN_ANOMALY   = 196.2306

EPHEMERIS_TYPE = 0
CLASSIFICATION_TYPE = U
NORAD_CAT_ID   = 20466
ELEMENT_SET_NO = 999
REV_AT_EPOCH   = 91820
BSTAR          = .9797068E-4
MEAN_MOTION_DOT = .832E-5
MEAN_MOTION_DDOT = 0

CCSDS_OMM_VERS = 2.0
CREATION_DATE  = 
ORIGINATOR     = 

OBJECT_NAME    = SL-14 R/B
OBJECT_ID      = 1990-018B
CENTER_NAME    = EARTH
REF_FRAME      = TEME
TIME_SYSTEM    = UTC
MEAN_ELEMENT_THEORY = SGP/SGP4

EPOCH          = 2025-12-30T12:05:22.062912
MEAN_MOTION    = 14.82067710
ECCENTRICITY   = .00155074
INCLINATION    = 82.5220
RA_OF_ASC_NODE = 287.7627
ARG_OF_PERICENTER = 324.4129
MEAN_ANOMALY   = 35.6050

EPHEMERIS_TYPE = 0
CLASSIFICATION_TYPE = U
NORAD_CAT_ID   = 20511
ELEMENT_SET_NO = 999
REV_AT_EPOCH   = 91233
BSTAR          = .10082107E-3
MEAN_MOTION_DOT = .825E-5
MEAN_MOTION_DDOT = 0

CCSDS_OMM_VERS = 2.0
CREATION_DATE  = 
ORIGINATOR     = 

OBJECT_NAME    = HST
OBJECT_ID      = 1990-037B
CENTER_NAME    = EARTH
REF_FRAME      = TEME
TIME_SYSTEM    = UTC
MEAN_ELEMENT_THEORY = SGP/SGP4

EPOCH          = 2025-12-30T11:45:47.095488
MEAN_MOTION    = 15.28290723
ECCENTRICITY   = .00026073
INCLINATION    = 28.4652
RA_OF_ASC_NODE = 151.6460
ARG_OF_PERICENTER = 72.4088
MEAN_ANOMALY   = 287.6792

EPHEMERIS_TYPE = 0
CLASSIFICATION_TYPE = U
NORAD_CAT_ID   = 20580
ELEMENT_SET_NO = 999
REV_AT_EPOCH   = 76271
BSTAR          = .35204989E-3
MEAN_MOTION_DOT = .10218E-3
MEAN_MOTION_DDOT = 0

CCSDS_OMM_VERS = 2.0
CREATION_DATE  = 
ORIGINATOR     = 

OBJECT_NAME    = SL-16 R/B
OBJECT_ID      = 1990-046B
CENTER_NAME    = EARTH
REF_FRAME      = TEME
TIME_SYSTEM    = UTC
MEAN_ELEMENT_THEORY = SGP/SGP4

EPOCH          = 2025-12-30T15:08:48.041376
MEAN_MOTION    = 14.14998244
ECCENTRICITY   = .00125316
INCLINATION    = 70.9993
RA_OF_ASC_NODE = 82.9491
ARG_OF_PERICENTER = 42.8436
MEAN_ANOMALY   = 317.3661

EPHEMERIS_TYPE = 0
CLASSIFICATION_TYPE = U
NORAD_CAT_ID   = 20625
ELEMENT_SET_NO = 999
REV_AT_EPOCH   = 83862
BSTAR          = .10287289E-3
MEAN_MOTION_DOT = .152E-5
MEAN_MOTION_DDOT = 0

CCSDS_OMM_VERS = 2.0
CREATION_DATE  = 
ORIGINATOR     = 

OBJECT_NAME    = COSMOS 2084
OBJECT_ID      = 1990-055A
CENTER_NAME    = EARTH
REF_FRAME      = TEME
TIME_SYSTEM    = UTC
MEAN_ELEMENT_THEORY = SGP/SGP4

EPOCH          = 2025-12-30T15:21:12.095712
MEAN_MOTION    = 15.05133523
ECCENTRICITY   = .00287975
INCLINATION    = 62.7889
RA_OF_ASC_NODE = 210.9969
ARG_OF_PERICENTER = 177.2417
MEAN_ANOMALY   = 182.8847

EPHEMERIS_TYPE = 0
CLASSIFICATION_TYPE = U
NORAD_CAT_ID   = 20663
ELEMENT_SET_NO = 999
REV_AT_EPOCH   = 92592
BSTAR          = .32987971E-3
MEAN_MOTION_DOT = .4561E-4
MEAN_MOTION_DDOT = 0

CCSDS_OMM_VERS = 2.0
CREATION_DATE  = 
ORIGINATOR     = 

OBJECT_NAME    = SL-6 R/B(2)
OBJECT_ID      = 1990-055D
CENTER_NAME    = EARTH
REF_FRAME      = TEME
TIME_SYSTEM    = UTC
MEAN_ELEMENT_THEORY = SGP/SGP4

EPOCH          = 2025-12-30T14:18:49.806720
MEAN_MOTION    = 15.03172819
ECCENTRICITY   = .00148185
INCLINATION    = 62.7833
RA_OF_ASC_NODE = 128.7370
ARG_OF_PERICENTER = 320.7036
MEAN_ANOMALY   = 39.2987

EPHEMERIS_TYPE = 0
CLASSIFICATION_TYPE = U
NORAD_CAT_ID   = 20666
ELEMENT_SET_NO = 999
REV_AT_EPOCH   = 92780
BSTAR          = .33114886E-3
MEAN_MOTION_DOT = .4313E-4
MEAN_MOTION_DDOT = 0

CCSDS_OMM_VERS = 2.0
CREATION_DATE  = 
ORIGINATOR     = 

OBJECT_NAME    = SL-8 R/B
OBJECT_ID      = 1990-078B
CENTER_NAME    = EARTH
REF_FRAME      = TEME
TIME_SYSTEM    = UTC
MEAN_ELEMENT_THEORY = SGP/SGP4

EPOCH          = 2025-12-30T13:43:53.817888
MEAN_MOTION    = 14.86572002
ECCENTRICITY   = .03695953
INCLINATION    = 82.9056
RA_OF_ASC_NODE = 313.3411
ARG_OF_PERICENTER = 245.8340
MEAN_ANOMALY   = 110.3831

EPHEMERIS_TYPE = 0
CLASSIFICATION_TYPE = U
NORAD_CAT_ID   = 20775
ELEMENT_SET_NO = 999
REV_AT_EPOCH   = 79902
BSTAR          = .57578879E-3
MEAN_MOTION_DOT = .1872E-3
MEAN_MOTION_DDOT = 0

CCSDS_OMM_VERS = 2.0
CREATION_DATE  = 
ORIGINATOR     = 

OBJECT_NAME    = SL-8 R/B
OBJECT_ID      = 1991-006B
CENTER_NAME    = EARTH
REF_FRAME      = TEME
TIME_SYSTEM    = UTC
MEAN_ELEMENT_THEORY = SGP/SGP4

EPOCH          = 2025-12-30T14:49:48.963648
MEAN_MOTION    = 13.77492802
ECCENTRICITY   = .0021474
INCLINATION    = 82.9409
RA_OF_ASC_NODE = 221.4144
ARG_OF_PERICENTER = 226.7638
MEAN_ANOMALY   = 186.7943

EPHEMERIS_TYPE = 0
CLASSIFICATION_TYPE = U
NORAD_CAT_ID   = 21088
ELEMENT_SET_NO = 999
REV_AT_EPOCH   = 75456
BSTAR          = .47447869E-4
MEAN_MOTION_DOT = .62E-6
MEAN_MOTION_DDOT = 0

CCSDS_OMM_VERS = 2.0
CREATION_DATE  = 
ORIGINATOR     = 

OBJECT_NAME    = OKEAN-3
OBJECT_ID      = 1991-039A
CENTER_NAME    = EARTH
REF_FRAME      = TEME
TIME_SYSTEM    = UTC
MEAN_ELEMENT_THEORY = SGP/SGP4

EPOCH          = 2025-12-30T13:50:52.874304
MEAN_MOTION    = 15.04236102
ECCENTRICITY   = .00137476
INCLINATION    = 82.5165
RA_OF_ASC_NODE = 43.7800
ARG_OF_PERICENTER = 198.7866
MEAN_ANOMALY   = 161.2855

EPHEMERIS_TYPE = 0
CLASSIFICATION_TYPE = U
NORAD_CAT_ID   = 21397
ELEMENT_SET_NO = 999
REV_AT_EPOCH   = 85464
BSTAR          = .34308719E-3
MEAN_MOTION_DOT = .4805E-4
MEAN_MOTION_DDOT = 0

CCSDS_OMM_VERS = 2.0
CREATION_DATE  = 
ORIGINATOR     = 

OBJECT_NAME    = COSMOS 2151
OBJECT_ID      = 1991-042A
CENTER_NAME    = EARTH
REF_FRAME      = TEME
TIME_SYSTEM    = UTC
MEAN_ELEMENT_THEORY = SGP/SGP4

EPOCH          = 2025-12-30T13:42:23.173056
MEAN_MOTION    = 14.99768590
ECCENTRICITY   = .00113581
INCLINATION    = 82.4967
RA_OF_ASC_NODE = 150.3189
ARG_OF_PERICENTER = 295.5463
MEAN_ANOMALY   = 64.4586

EPHEMERIS_TYPE = 0
CLASSIFICATION_TYPE = U
NORAD_CAT_ID   = 21422
ELEMENT_SET_NO = 999
REV_AT_EPOCH   = 85283
BSTAR          = .3060764E-3
MEAN_MOTION_DOT = .3812E-4
MEAN_MOTION_DDOT = 0

