DELTA 2 R/B(1)          
1 20453U 90008B   25364.44531324  .00061791  00000+0  94129-3 0  9998
2 20453  35.6063 266.0704 0107675 338.8474  20.7828 15.46868258915372
COSMOS 2058             
1 20465U 90010A   25364.37847080  .00007362  00000+0  44292-3 0  9995
2 20465  82.4711 115.6815 0009872 208.4730 151.5962 15.10659078931777
SL-14 R/B               
1 20466U 90010B   25364.35011908  .00000832  00000+0  97971-4 0  9994
2 20466  82.5028 332.5069 0020169 163.9553 196.2306 14.83490476918206
SL-14 R/B               
1 20511U 90018B   25364.50372758  .00000825  00000+0  10082-3 0  9992
2 20511  82.5220 287.7627 0015507 324.4129  35.6050 14.82067710912335
HST                     
1 20580U 90037B   25364.49012842  .00010218  00000+0  35205-3 0  9993
2 20580  28.4652 151.6460 0002607  72.4088 287.6792 15.28290723762714
SL-16 R/B               
1 20625U 90046B   25364.63111159  .00000152  00000+0  10287-3 0  9999
2 20625  70.9993  82.9491 0012531  42.8436 317.3661 14.14998244838626
COSMOS 2084             
1 20663U 90055A   25364.63972333  .00004561  00000+0  32988-3 0  9990
2 20663  62.7889 210.9969 0028797 177.2417 182.8847 15.05133523925920
SL-6 R/B(2)             
1 20666U 90055D   25364.59640980  .00004313  00000+0  33115-3 0  9996
2 20666  62.7833 128.7370 0014818 320.7036  39.2987 15.03172819927803
SL-8 R/B                
1 20775U 90078B   25364.57215067  .00018720  00000+0  57579-3 0  9991
2 20775  82.9056 313.3411 0369595 245.8340 110.3831 14.86572002799021
SL-8 R/B                
1 21088U 91006B   25364.61792782  .00000062  00000+0  47448-4 0  9995
2 21088  82.9409 221.4144 0021474 226.7638 186.7943 13.77492802754561
OKEAN-3                 
1 21397U 91039A   25364.57700086  .00004805  00000+0  34309-3 0  9995
2 21397  82.5165  43.7800 0013747 198.7866 161.2855 15.04236102854649
COSMOS 2151             
1 21422U 91042A   25364.57110154  .00003812  00000+0  30608-3 0  9994
2 21422  82.4967 150.3189 0011358 295.5463  64.4586 14.99768590852835
